start=new Date('2021-09-12T00:00:00.000Z').valueOf();
sats=[{"CENTER_NAME":"EARTH","REF_FRAME":"TEME","APOAPSIS":"548.628","SITE":"AFETR","NORAD_CAT_ID":"46791","EPOCH":"2021-09-11T15:04:44.293152","MEAN_MOTION":"15.06397919","MEAN_ANOMALY":"285.6574","MEAN_MOTION_DDOT":"0.0000000000000","GP_ID":"184535783","TIME_SYSTEM":"UTC","REV_AT_EPOCH":"4948","OBJECT_NAME":"STARLINK-1933","ARG_OF_PERICENTER":"74.4639","ELEMENT_SET_NO":"999","PERIOD":"95.592","CLASSIFICATION_TYPE":"U","COUNTRY_CODE":"US","DECAY_DATE":null,"BSTAR":"0.00002559600000","EPHEMERIS_TYPE":"0","INCLINATION":"53.0552","RA_OF_ASC_NODE":"124.1507","RCS_SIZE":"LARGE","TLE_LINE2":"2 46791  53.0552 124.1507 0002033  74.4639 285.6574 15.06397919 49482","PERIAPSIS":"545.812","OBJECT_TYPE":"PAYLOAD","MEAN_ELEMENT_THEORY":"SGP4","OBJECT_ID":"2020-074BE","LAUNCH_DATE":"2020-10-24","MEAN_MOTION_DOT":"0.00000100","FILE":"3113379","TLE_LINE1":"1 46791U 20074BE  21254.62829043  .00000100  00000-0  25596-4 0  9990","ECCENTRICITY":"0.00020330","SEMIMAJOR_AXIS":"6925.355"},{"CLASSIFICATION_TYPE":"U","PERIOD":"95.593","ELEMENT_SET_NO":"999","REV_AT_EPOCH":"4962","ARG_OF_PERICENTER":"86.9642","OBJECT_NAME":"STARLINK-1934","MEAN_MOTION_DDOT":"0.0000000000000","GP_ID":"184534032","TIME_SYSTEM":"UTC","MEAN_ANOMALY":"273.1602","APOAPSIS":"548.790","SITE":"AFETR","MEAN_MOTION":"15.06389884","EPOCH":"2021-09-11T15:43:13.810944","NORAD_CAT_ID":"46792","REF_FRAME":"TEME","CENTER_NAME":"EARTH","FILE":"3113379","SEMIMAJOR_AXIS":"6925.380","TLE_LINE1":"1 46792U 20074BF  21254.65502096 -.00001006  00000-0 -48640-4 0  9993","ECCENTRICITY":"0.00022310","LAUNCH_DATE":"2020-10-24","OBJECT_ID":"2020-074BF","MEAN_MOTION_DOT":"-0.00001006","MEAN_ELEMENT_THEORY":"SGP4","OBJECT_TYPE":"PAYLOAD","TLE_LINE2":"2 46792  53.0561 114.0239 0002231  86.9642 273.1602 15.06389884 49627","PERIAPSIS":"545.700","RA_OF_ASC_NODE":"114.0239","RCS_SIZE":"LARGE","DECAY_DATE":null,"COUNTRY_CODE":"US","INCLINATION":"53.0561","EPHEMERIS_TYPE":"0","BSTAR":"-0.00004864000000"},{"OBJECT_TYPE":"PAYLOAD","MEAN_ELEMENT_THEORY":"SGP4","PERIAPSIS":"545.896","TLE_LINE2":"2 46793  53.0559 123.5825 0001977  79.3897 280.7314 15.06383032 49493","RCS_SIZE":"LARGE","RA_OF_ASC_NODE":"123.5825","EPHEMERIS_TYPE":"0","INCLINATION":"53.0559","BSTAR":"-0.00003020500000","DECAY_DATE":null,"COUNTRY_CODE":"US","TLE_LINE1":"1 46793U 20074BG  21254.74993544 -.00000731  00000-0 -30205-4 0  9998","ECCENTRICITY":"0.00019770","SEMIMAJOR_AXIS":"6925.401","FILE":"3113379","MEAN_MOTION_DOT":"-0.00000731","LAUNCH_DATE":"2020-10-24","OBJECT_ID":"2020-074BG","MEAN_MOTION":"15.06383032","EPOCH":"2021-09-11T17:59:54.422016","NORAD_CAT_ID":"46793","APOAPSIS":"548.635","SITE":"AFETR","REF_FRAME":"TEME","CENTER_NAME":"EARTH","CLASSIFICATION_TYPE":"U","PERIOD":"95.593","ELEMENT_SET_NO":"999","ARG_OF_PERICENTER":"79.3897","OBJECT_NAME":"STARLINK-1941","REV_AT_EPOCH":"4949","GP_ID":"184534282","TIME_SYSTEM":"UTC","MEAN_MOTION_DDOT":"0.0000000000000","MEAN_ANOMALY":"280.7314"},{"PERIOD":"95.593","CLASSIFICATION_TYPE":"U","ELEMENT_SET_NO":"999","REV_AT_EPOCH":"4941","OBJECT_NAME":"STARLINK-1942","ARG_OF_PERICENTER":"80.7398","MEAN_ANOMALY":"279.3833","MEAN_MOTION_DDOT":"0.0000000000000","GP_ID":"184506926","TIME_SYSTEM":"UTC","APOAPSIS":"548.721","SITE":"AFETR","NORAD_CAT_ID":"46794","MEAN_MOTION":"15.06392645","EPOCH":"2021-09-11T03:50:39.383520","REF_FRAME":"TEME","CENTER_NAME":"EARTH","FILE":"3113181","SEMIMAJOR_AXIS":"6925.371","TLE_LINE1":"1 46794U 20074BH  21254.16017805 -.00000523  00000-0 -16182-4 0  9999","ECCENTRICITY":"0.00021440","LAUNCH_DATE":"2020-10-24","OBJECT_ID":"2020-074BH","MEAN_MOTION_DOT":"-0.00000523","OBJECT_TYPE":"PAYLOAD","MEAN_ELEMENT_THEORY":"SGP4","PERIAPSIS":"545.751","TLE_LINE2":"2 46794  53.0542 126.2521 0002144  80.7398 279.3833 15.06392645 49410","RA_OF_ASC_NODE":"126.2521","RCS_SIZE":"LARGE","COUNTRY_CODE":"US","DECAY_DATE":null,"BSTAR":"-0.00001618200000","EPHEMERIS_TYPE":"0","INCLINATION":"53.0542"},{"ELEMENT_SET_NO":"999","PERIOD":"93.375","CLASSIFICATION_TYPE":"U","MEAN_ANOMALY":"39.9217","TIME_SYSTEM":"UTC","GP_ID":"184535284","MEAN_MOTION_DDOT":"0.0000000000000","REV_AT_EPOCH":"5005","OBJECT_NAME":"STARLINK-1943","ARG_OF_PERICENTER":"320.1224","REF_FRAME":"TEME","APOAPSIS":"444.929","SITE":"AFETR","NORAD_CAT_ID":"46795","EPOCH":"2021-09-11T17:23:47.973984","MEAN_MOTION":"15.42172241","CENTER_NAME":"EARTH","FILE":"3113379","ECCENTRICITY":"0.00076680","TLE_LINE1":"1 46795U 20074BJ  21254.72486081  .00004299  00000-0  10815-3 0  9996","SEMIMAJOR_AXIS":"6817.837","LAUNCH_DATE":"2020-10-24","OBJECT_ID":"2020-074BJ","MEAN_MOTION_DOT":"0.00004299","TLE_LINE2":"2 46795  53.0519  84.3900 0007668 320.1224  39.9217 15.42172241 50051","PERIAPSIS":"434.474","MEAN_ELEMENT_THEORY":"SGP4","OBJECT_TYPE":"PAYLOAD","DECAY_DATE":null,"COUNTRY_CODE":"US","BSTAR":"0.00010815000000","INCLINATION":"53.0519","EPHEMERIS_TYPE":"0","RA_OF_ASC_NODE":"84.3900","RCS_SIZE":"LARGE"},{"CENTER_NAME":"EARTH","MEAN_MOTION":"15.06397282","EPOCH":"2021-09-11T03:14:49.824960","NORAD_CAT_ID":"46796","APOAPSIS":"548.739","SITE":"AFETR","REF_FRAME":"TEME","ARG_OF_PERICENTER":"80.9548","OBJECT_NAME":"STARLINK-1944","REV_AT_EPOCH":"4954","TIME_SYSTEM":"UTC","GP_ID":"184507923","MEAN_MOTION_DDOT":"0.0000000000000","MEAN_ANOMALY":"279.1689","CLASSIFICATION_TYPE":"U","PERIOD":"95.592","ELEMENT_SET_NO":"999","RCS_SIZE":"LARGE","RA_OF_ASC_NODE":"116.3483","INCLINATION":"53.0550","EPHEMERIS_TYPE":"0","BSTAR":"-0.00001610200000","DECAY_DATE":null,"COUNTRY_CODE":"US","MEAN_ELEMENT_THEORY":"SGP4","OBJECT_TYPE":"PAYLOAD","PERIAPSIS":"545.705","TLE_LINE2":"2 46796  53.0550 116.3483 0002191  80.9548 279.1689 15.06397282 49542","MEAN_MOTION_DOT":"-0.00000522","OBJECT_ID":"2020-074BK","LAUNCH_DATE":"2020-10-24","TLE_LINE1":"1 46796U 20074BK  21254.13529890 -.00000522  00000-0 -16102-4 0  9991","ECCENTRICITY":"0.00021910","SEMIMAJOR_AXIS":"6925.357","FILE":"3113181"},{"MEAN_ELEMENT_THEORY":"SGP4","OBJECT_TYPE":"PAYLOAD","PERIAPSIS":"541.901","TLE_LINE2":"2 46797  53.0610  93.6489 0006495 204.4742 155.5940 15.06666017 49927","RCS_SIZE":"LARGE","RA_OF_ASC_NODE":"93.6489","INCLINATION":"53.0610","EPHEMERIS_TYPE":"0","BSTAR":"0.00220710000000","DECAY_DATE":null,"COUNTRY_CODE":"US","TLE_LINE1":"1 46797U 20074BL  21254.73393357  .00032997  00000-0  22071-2 0  9994","SEMIMAJOR_AXIS":"6924.533","ECCENTRICITY":"0.00064950","FILE":"3113379","MEAN_MOTION_DOT":"0.00032997","LAUNCH_DATE":"2020-10-24","OBJECT_ID":"2020-074BL","MEAN_MOTION":"15.06666017","EPOCH":"2021-09-11T17:36:51.860448","NORAD_CAT_ID":"46797","APOAPSIS":"550.896","SITE":"AFETR","REF_FRAME":"TEME","CENTER_NAME":"EARTH","CLASSIFICATION_TYPE":"U","PERIOD":"95.575","ELEMENT_SET_NO":"999","ARG_OF_PERICENTER":"204.4742","OBJECT_NAME":"STARLINK-1947","REV_AT_EPOCH":"4992","TIME_SYSTEM":"UTC","GP_ID":"184534782","MEAN_MOTION_DDOT":"0.0000000000000","MEAN_ANOMALY":"155.5940"},{"TLE_LINE2":"2 46798  53.0542 138.8370 0002177  76.0488 284.0743 15.06402231 49280","PERIAPSIS":"545.699","OBJECT_TYPE":"PAYLOAD","MEAN_ELEMENT_THEORY":"SGP4","BSTAR":"0.00012706000000","INCLINATION":"53.0542","EPHEMERIS_TYPE":"0","DECAY_DATE":null,"COUNTRY_CODE":"US","RCS_SIZE":"LARGE","RA_OF_ASC_NODE":"138.8370","ECCENTRICITY":"0.00021770","TLE_LINE1":"1 46798U 20074BM  21254.69782640  .00001611  00000-0  12706-3 0  9991","SEMIMAJOR_AXIS":"6925.342","FILE":"3113379","MEAN_MOTION_DOT":"0.00001611","LAUNCH_DATE":"2020-10-24","OBJECT_ID":"2020-074BM","REF_FRAME":"TEME","NORAD_CAT_ID":"46798","MEAN_MOTION":"15.06402231","EPOCH":"2021-09-11T16:44:52.200960","SITE":"AFETR","APOAPSIS":"548.714","CENTER_NAME":"EARTH","ELEMENT_SET_NO":"999","PERIOD":"95.592","CLASSIFICATION_TYPE":"U","MEAN_ANOMALY":"284.0743","GP_ID":"184535034","TIME_SYSTEM":"UTC","MEAN_MOTION_DDOT":"0.0000000000000","OBJECT_NAME":"STARLINK-1948","ARG_OF_PERICENTER":"76.0488","REV_AT_EPOCH":"4928"},{"OBJECT_TYPE":"PAYLOAD","MEAN_ELEMENT_THEORY":"SGP4","TLE_LINE2":"2 47122  53.0537 103.7390 0002011  76.9096 283.2118 15.06398700 44658","PERIAPSIS":"545.825","RA_OF_ASC_NODE":"103.7390","RCS_SIZE":"LARGE","COUNTRY_CODE":"US","DECAY_DATE":null,"EPHEMERIS_TYPE":"0","INCLINATION":"53.0537","BSTAR":"0.00001512100000","FILE":"3113379","TLE_LINE1":"1 47122U 20088A   21254.71859881 -.00000056  00000-0  15121-4 0  9991","ECCENTRICITY":"0.00020110","SEMIMAJOR_AXIS":"6925.353","OBJECT_ID":"2020-088A","LAUNCH_DATE":"2020-11-25","MEAN_MOTION_DOT":"-0.00000056","APOAPSIS":"548.610","SITE":"AFETR","MEAN_MOTION":"15.06398700","EPOCH":"2021-09-11T17:14:46.937184","NORAD_CAT_ID":"47122","REF_FRAME":"TEME","CENTER_NAME":"EARTH","CLASSIFICATION_TYPE":"U","PERIOD":"95.592","ELEMENT_SET_NO":"999","REV_AT_EPOCH":"4465","ARG_OF_PERICENTER":"76.9096","OBJECT_NAME":"STARLINK-1777","MEAN_MOTION_DDOT":"0.0000000000000","GP_ID":"184535072","TIME_SYSTEM":"UTC","MEAN_ANOMALY":"283.2118"},{"RCS_SIZE":"LARGE","RA_OF_ASC_NODE":"108.8120","INCLINATION":"53.0552","EPHEMERIS_TYPE":"0","BSTAR":"0.00009837200000","COUNTRY_CODE":"US","DECAY_DATE":null,"OBJECT_TYPE":"PAYLOAD","MEAN_ELEMENT_THEORY":"SGP4","PERIAPSIS":"546.025","TLE_LINE2":"2 47124  53.0552 108.8120 0001726  81.1920 278.9265 15.06397651 44580","MEAN_MOTION_DOT":"0.00001184","OBJECT_ID":"2020-088C","LAUNCH_DATE":"2020-11-25","ECCENTRICITY":"0.00017260","TLE_LINE1":"1 47124U 20088C   21254.70428763  .00001184  00000-0  98372-4 0  9994","SEMIMAJOR_AXIS":"6925.356","FILE":"3113379","CENTER_NAME":"EARTH","EPOCH":"2021-09-11T16:54:10.451232","MEAN_MOTION":"15.06397651","NORAD_CAT_ID":"47124","SITE":"AFETR","APOAPSIS":"548.416","REF_FRAME":"TEME","ARG_OF_PERICENTER":"81.1920","OBJECT_NAME":"STARLINK-1785","REV_AT_EPOCH":"4458","GP_ID":"184535822","TIME_SYSTEM":"UTC","MEAN_MOTION_DDOT":"0.0000000000000","MEAN_ANOMALY":"278.9265","CLASSIFICATION_TYPE":"U","PERIOD":"95.592","ELEMENT_SET_NO":"999"}];
